{
  "type": "FeatureCollection",
  "features": [
    {
      "type": "Feature",
      "properties": {
        "norad_id": 43260,
        "name": "GAOFEN-1 03",
        "group": "resource",
        "lat": -77.61879015960221,
        "lon": 81.6993378448855,
        "alt_km": 647.0965965546475,
        "timestamp": "2025-12-09T16:56:36.237755+00:00",
        "meta_object_name": "GAOFEN-1 03",
        "meta_object_id": "2018-031B",
        "meta_epoch": "2025-12-09T12:25:41.700000",
        "meta_mean_motion": 14.76427476,
        "meta_eccentricity": 0.00022,
        "meta_inclination": 98.0803,
        "meta_ra_of_asc_node": 41.1831,
        "meta_arg_of_pericenter": 336.2847,
        "meta_mean_anomaly": 23.8261,
        "meta_ephemeris_type": 0,
        "meta_classification_type": "U",
        "meta_norad_cat_id": 43260,
        "meta_element_set_no": 999,
        "meta_rev_at_epoch": 41470,
        "meta_bstar": 0.00026076,
        "meta_mean_motion_dot": 1.761e-05,
        "meta_mean_motion_ddot": 0,
        "tle_line1": "1 43260U 18031B   25343.51784375  .00001761  00000+0  26076-3 0  9993",
        "tle_line2": "2 43260  98.0803  41.1831 0002200 336.2847  23.8261 14.76427476414706"
      },
      "geometry": {
        "type": "Point",
        "coordinates": [
          81.6993378448855,
          -77.61879015960221
        ]
      }
    },
    {
      "type": "Feature",
      "properties": {
        "norad_id": 43262,
        "name": "GAOFEN-1 04",
        "group": "resource",
        "lat": 47.970605815214924,
        "lon": 32.471155949619956,
        "alt_km": 635.4690959703694,
        "timestamp": "2025-12-09T16:56:36.237765+00:00",
        "meta_object_name": "GAOFEN-1 04",
        "meta_object_id": "2018-031D",
        "meta_epoch": "2025-12-09T11:50:40.123680",
        "meta_mean_motion": 14.76440118,
        "meta_eccentricity": 0.0001199,
        "meta_inclination": 98.0807,
        "meta_ra_of_asc_node": 41.3277,
        "meta_arg_of_pericenter": 54.6339,
        "meta_mean_anomaly": 305.4983,
        "meta_ephemeris_type": 0,
        "meta_classification_type": "U",
        "meta_norad_cat_id": 43262,
        "meta_element_set_no": 999,
        "meta_rev_at_epoch": 41469,
        "meta_bstar": 0.00023184,
        "meta_mean_motion_dot": 1.561e-05,
        "meta_mean_motion_ddot": 0,
        "tle_line1": "1 43262U 18031D   25343.49351995  .00001561  00000+0  23184-3 0  9995",
        "tle_line2": "2 43262  98.0807  41.3277 0001199  54.6339 305.4983 14.76440118414697"
      },
      "geometry": {
        "type": "Point",
        "coordinates": [
          32.471155949619956,
          47.970605815214924
        ]
      }
    },
    {
      "type": "Feature",
      "properties": {
        "norad_id": 43437,
        "name": "SENTINEL-3B",
        "group": "resource",
        "lat": 36.7137769434457,
        "lon": 42.43375840574621,
        "alt_km": 799.588415664769,
        "timestamp": "2025-12-09T16:56:36.237775+00:00",
        "meta_object_name": "SENTINEL-3B",
        "meta_object_id": "2018-039A",
        "meta_epoch": "2025-12-09T10:02:13.738848",
        "meta_mean_motion": 14.26741127,
        "meta_eccentricity": 0.0001551,
        "meta_inclination": 98.627,
        "meta_ra_of_asc_node": 48.6509,
        "meta_arg_of_pericenter": 106.2359,
        "meta_mean_anomaly": 253.8992,
        "meta_ephemeris_type": 0,
        "meta_classification_type": "U",
        "meta_norad_cat_id": 43437,
        "meta_element_set_no": 999,
        "meta_rev_at_epoch": 39706,
        "meta_bstar": 0.00013773,
        "meta_mean_motion_dot": 2.9e-06,
        "meta_mean_motion_ddot": 0,
        "tle_line1": "1 43437U 18039A   25343.41821457  .00000290  00000+0  13773-3 0  9995",
        "tle_line2": "2 43437  98.6270  48.6509 0001551 106.2359 253.8992 14.26741127397063"
      },
      "geometry": {
        "type": "Point",
        "coordinates": [
          42.43375840574621,
          36.7137769434457
        ]
      }
    },
    {
      "type": "Feature",
      "properties": {
        "norad_id": 43461,
        "name": "GAOFEN-5 01",
        "group": "resource",
        "lat": 18.909825158997098,
        "lon": -56.29258268735557,
        "alt_km": 691.3522976566392,
        "timestamp": "2025-12-09T16:56:36.237788+00:00",
        "meta_object_name": "GAOFEN-5 01",
        "meta_object_id": "2018-043A",
        "meta_epoch": "2025-12-09T11:55:23.036160",
        "meta_mean_motion": 14.6040512,
        "meta_eccentricity": 0.0001176,
        "meta_inclination": 98.4321,
        "meta_ra_of_asc_node": 306.4074,
        "meta_arg_of_pericenter": 352.7222,
        "meta_mean_anomaly": 7.396,
        "meta_ephemeris_type": 0,
        "meta_classification_type": "U",
        "meta_norad_cat_id": 43461,
        "meta_element_set_no": 999,
        "meta_rev_at_epoch": 40400,
        "meta_bstar": 0.0002101,
        "meta_mean_motion_dot": 9.68e-06,
        "meta_mean_motion_ddot": 0,
        "tle_line1": "1 43461U 18043A   25343.49679440  .00000968  00000+0  21010-3 0  9993",
        "tle_line2": "2 43461  98.4321 306.4074 0001176 352.7222   7.3960 14.60405120404005"
      },
      "geometry": {
        "type": "Point",
        "coordinates": [
          -56.29258268735557,
          18.909825158997098
        ]
      }
    },
    {
      "type": "Feature",
      "properties": {
        "norad_id": 43484,
        "name": "GAOFEN-6",
        "group": "resource",
        "lat": -18.718079830089213,
        "lon": -134.58839844699528,
        "alt_km": 650.8684246601633,
        "timestamp": "2025-12-09T16:56:36.237799+00:00",
        "meta_object_name": "GAOFEN-6",
        "meta_object_id": "2018-048A",
        "meta_epoch": "2025-12-09T12:47:39.562656",
        "meta_mean_motion": 14.7655644,
        "meta_eccentricity": 0.00133,
        "meta_inclination": 97.8031,
        "meta_ra_of_asc_node": 47.9077,
        "meta_arg_of_pericenter": 72.7571,
        "meta_mean_anomaly": 287.5093,
        "meta_ephemeris_type": 0,
        "meta_classification_type": "U",
        "meta_norad_cat_id": 43484,
        "meta_element_set_no": 999,
        "meta_rev_at_epoch": 40540,
        "meta_bstar": 0.00016673,
        "meta_mean_motion_dot": 1.115e-05,
        "meta_mean_motion_ddot": 0,
        "tle_line1": "1 43484U 18048A   25343.53309679  .00001115  00000+0  16673-3 0  9996",
        "tle_line2": "2 43484  97.8031  47.9077 0013300  72.7571 287.5093 14.76556440405402"
      },
      "geometry": {
        "type": "Point",
        "coordinates": [
          -134.58839844699528,
          -18.718079830089213
        ]
      }
    },
    {
      "type": "Feature",
      "properties": {
        "norad_id": 43585,
        "name": "GAOFEN-11 01",
        "group": "resource",
        "lat": -65.30202756651609,
        "lon": 62.5188621571345,
        "alt_km": 424.0724007563931,
        "timestamp": "2025-12-09T16:56:36.237809+00:00",
        "meta_object_name": "GAOFEN-11 01",
        "meta_object_id": "2018-063A",
        "meta_epoch": "2025-12-09T12:34:40.778976",
        "meta_mean_motion": 15.4907929,
        "meta_eccentricity": 0.0004644,
        "meta_inclination": 97.1556,
        "meta_ra_of_asc_node": 46.4856,
        "meta_arg_of_pericenter": 329.3295,
        "meta_mean_anomaly": 30.7684,
        "meta_ephemeris_type": 0,
        "meta_classification_type": "U",
        "meta_norad_cat_id": 43585,
        "meta_element_set_no": 999,
        "meta_rev_at_epoch": 41092,
        "meta_bstar": 0.00036699,
        "meta_mean_motion_dot": 0.00019852,
        "meta_mean_motion_ddot": 0,
        "tle_line1": "1 43585U 18063A   25343.52408309  .00019852  00000+0  36699-3 0  9991",
        "tle_line2": "2 43585  97.1556  46.4856 0004644 329.3295  30.7684 15.49079290410924"
      },
      "geometry": {
        "type": "Point",
        "coordinates": [
          62.5188621571345,
          -65.30202756651609
        ]
      }
    },
    {
      "type": "Feature",
      "properties": {
        "norad_id": 43613,
        "name": "ICESAT-2",
        "group": "resource",
        "lat": -77.88311017796164,
        "lon": 50.529939222766615,
        "alt_km": 488.73405768431167,
        "timestamp": "2025-12-09T16:56:36.237820+00:00",
        "meta_object_name": "ICESAT-2",
        "meta_object_id": "2018-070A",
        "meta_epoch": "2025-12-09T11:06:11.802240",
        "meta_mean_motion": 15.28265965,
        "meta_eccentricity": 0.000227,
        "meta_inclination": 92.0044,
        "meta_ra_of_asc_node": 239.8529,
        "meta_arg_of_pericenter": 157.4455,
        "meta_mean_anomaly": 202.6894,
        "meta_ephemeris_type": 0,
        "meta_classification_type": "U",
        "meta_norad_cat_id": 43613,
        "meta_element_set_no": 999,
        "meta_rev_at_epoch": 40348,
        "meta_bstar": 0.00063791,
        "meta_mean_motion_dot": 0.00017576,
        "meta_mean_motion_ddot": 0,
        "tle_line1": "1 43613U 18070A   25343.46263660  .00017576  00000+0  63791-3 0  9997",
        "tle_line2": "2 43613  92.0044 239.8529 0002270 157.4455 202.6894 15.28265965403487"
      },
      "geometry": {
        "type": "Point",
        "coordinates": [
          50.529939222766615,
          -77.88311017796164
        ]
      }
    }
  ]
}